{
  "type": "FeatureCollection",
  "features": [
    {
      "type": "Feature",
      "properties": {
        "norad_id": 58701,
        "name": "TIANMU-1 16",
        "group": "weather",
        "lat": 25.43062542281383,
        "lon": -12.234130613885043,
        "alt_km": 494.96068658774493,
        "timestamp": "2025-12-09T07:41:32.845420+00:00",
        "meta_object_name": "TIANMU-1 16",
        "meta_object_id": "2024-004B",
        "meta_epoch": "2025-12-08T23:08:26.047968",
        "meta_mean_motion": 15.24353377,
        "meta_eccentricity": 0.00046663,
        "meta_inclination": 97.4569,
        "meta_ra_of_asc_node": 163.8407,
        "meta_arg_of_pericenter": 312.7918,
        "meta_mean_anomaly": 47.2927,
        "meta_ephemeris_type": 0,
        "meta_classification_type": "U",
        "meta_norad_cat_id": 58701,
        "meta_element_set_no": 999,
        "meta_rev_at_epoch": 10677,
        "meta_bstar": 0.00034755409,
        "meta_mean_motion_dot": 8.44e-05,
        "meta_mean_motion_ddot": 0,
        "tle_line1": "1 58701U 24004B   25342.96419037  .00008440  00000+0  34755-3 0  9998",
        "tle_line2": "2 58701  97.4569 163.8407 0004666 312.7918  47.2927 15.24353377106777"
      },
      "geometry": {
        "type": "Point",
        "coordinates": [
          -12.234130613885043,
          25.43062542281383
        ]
      }
    },
    {
      "type": "Feature",
      "properties": {
        "norad_id": 58702,
        "name": "TIANMU-1 17",
        "group": "weather",
        "lat": -57.45285488395654,
        "lon": -27.244654136837816,
        "alt_km": 499.108812572189,
        "timestamp": "2025-12-09T07:41:32.845436+00:00",
        "meta_object_name": "TIANMU-1 17",
        "meta_object_id": "2024-004C",
        "meta_epoch": "2025-12-08T22:46:24.606624",
        "meta_mean_motion": 15.24400311,
        "meta_eccentricity": 0.00038881,
        "meta_inclination": 97.4603,
        "meta_ra_of_asc_node": 164.2335,
        "meta_arg_of_pericenter": 316.8759,
        "meta_mean_anomaly": 43.2174,
        "meta_ephemeris_type": 0,
        "meta_classification_type": "U",
        "meta_norad_cat_id": 58702,
        "meta_element_set_no": 999,
        "meta_rev_at_epoch": 10676,
        "meta_bstar": 0.0004336499,
        "meta_mean_motion_dot": 0.00010565,
        "meta_mean_motion_ddot": 0,
        "tle_line1": "1 58702U 24004C   25342.94889591  .00010565  00000+0  43365-3 0  9991",
        "tle_line2": "2 58702  97.4603 164.2335 0003888 316.8759  43.2174 15.24400311106765"
      },
      "geometry": {
        "type": "Point",
        "coordinates": [
          -27.244654136837816,
          -57.45285488395654
        ]
      }
    },
    {
      "type": "Feature",
      "properties": {
        "norad_id": 58703,
        "name": "TIANMU-1 18",
        "group": "weather",
        "lat": -29.963156271392943,
        "lon": 169.131436099649,
        "alt_km": 496.4681652237896,
        "timestamp": "2025-12-09T07:41:32.845455+00:00",
        "meta_object_name": "TIANMU-1 18",
        "meta_object_id": "2024-004D",
        "meta_epoch": "2025-12-08T23:56:51.895968",
        "meta_mean_motion": 15.2438746,
        "meta_eccentricity": 0.00032508,
        "meta_inclination": 97.462,
        "meta_ra_of_asc_node": 164.4767,
        "meta_arg_of_pericenter": 317.7129,
        "meta_mean_anomaly": 42.3857,
        "meta_ephemeris_type": 0,
        "meta_classification_type": "U",
        "meta_norad_cat_id": 58703,
        "meta_element_set_no": 999,
        "meta_rev_at_epoch": 10677,
        "meta_bstar": 0.00035627964,
        "meta_mean_motion_dot": 8.661e-05,
        "meta_mean_motion_ddot": 0,
        "tle_line1": "1 58703U 24004D   25342.99782287  .00008661  00000+0  35628-3 0  9998",
        "tle_line2": "2 58703  97.4620 164.4767 0003250 317.7129  42.3857 15.24387460106778"
      },
      "geometry": {
        "type": "Point",
        "coordinates": [
          169.131436099649,
          -29.963156271392943
        ]
      }
    },
    {
      "type": "Feature",
      "properties": {
        "norad_id": 58990,
        "name": "INSAT-3DS",
        "group": "weather",
        "lat": -0.01337927603638885,
        "lon": -84.220268402423,
        "alt_km": 35779.806466485476,
        "timestamp": "2025-12-09T07:41:32.845474+00:00",
        "meta_object_name": "INSAT-3DS",
        "meta_object_id": "2024-033A",
        "meta_epoch": "2025-12-08T23:20:38.624928",
        "meta_mean_motion": 1.0026959,
        "meta_eccentricity": 0.00016622,
        "meta_inclination": 0.0157,
        "meta_ra_of_asc_node": 80.0081,
        "meta_arg_of_pericenter": 184.8154,
        "meta_mean_anomaly": 245.3901,
        "meta_ephemeris_type": 0,
        "meta_classification_type": "U",
        "meta_norad_cat_id": 58990,
        "meta_element_set_no": 999,
        "meta_rev_at_epoch": 4516,
        "meta_bstar": 0,
        "meta_mean_motion_dot": -1.53e-06,
        "meta_mean_motion_ddot": 0,
        "tle_line1": "1 58990U 24033A   25342.97266927 -.00000153  00000+0  00000+0 0  9995",
        "tle_line2": "2 58990   0.0157  80.0081 0001662 184.8154 245.3901  1.00269590 45161"
      },
      "geometry": {
        "type": "Point",
        "coordinates": [
          -84.220268402423,
          -0.01337927603638885
        ]
      }
    },
    {
      "type": "Feature",
      "properties": {
        "norad_id": 59051,
        "name": "METEOR-M2 4",
        "group": "weather",
        "lat": -41.205742659873685,
        "lon": -52.03350906759982,
        "alt_km": 820.409524028707,
        "timestamp": "2025-12-09T07:41:32.845494+00:00",
        "meta_object_name": "METEOR-M2 4",
        "meta_object_id": "2024-039A",
        "meta_epoch": "2025-12-08T23:26:49.538400",
        "meta_mean_motion": 14.22400291,
        "meta_eccentricity": 0.00072521,
        "meta_inclination": 98.6761,
        "meta_ra_of_asc_node": 299.945,
        "meta_arg_of_pericenter": 9.26,
        "meta_mean_anomaly": 350.871,
        "meta_ephemeris_type": 0,
        "meta_classification_type": "U",
        "meta_norad_cat_id": 59051,
        "meta_element_set_no": 999,
        "meta_rev_at_epoch": 9222,
        "meta_bstar": 5.6144577e-05,
        "meta_mean_motion_dot": 8.1e-07,
        "meta_mean_motion_ddot": 0,
        "tle_line1": "1 59051U 24039A   25342.97696225  .00000081  00000+0  56145-4 0  9993",
        "tle_line2": "2 59051  98.6761 299.9450 0007252   9.2600 350.8710 14.22400291 92224"
      },
      "geometry": {
        "type": "Point",
        "coordinates": [
          -52.03350906759982,
          -41.205742659873685
        ]
      }
    },
    {
      "type": "Feature",
      "properties": {
        "norad_id": 60133,
        "name": "GOES 19",
        "group": "weather",
        "lat": -0.007074681000788287,
        "lon": 118.51576559953874,
        "alt_km": 35791.885496121504,
        "timestamp": "2025-12-09T07:41:32.845513+00:00",
        "meta_object_name": "GOES 19",
        "meta_object_id": "2024-119A",
        "meta_epoch": "2025-12-08T21:48:24.352416",
        "meta_mean_motion": 1.00271448,
        "meta_eccentricity": 0.00013499,
        "meta_inclination": 0.0087,
        "meta_ra_of_asc_node": 198.1567,
        "meta_arg_of_pericenter": 105.4692,
        "meta_mean_anomaly": 26.2013,
        "meta_ephemeris_type": 0,
        "meta_classification_type": "U",
        "meta_norad_cat_id": 60133,
        "meta_element_set_no": 999,
        "meta_rev_at_epoch": 505,
        "meta_bstar": 0,
        "meta_mean_motion_dot": -2.46e-06,
        "meta_mean_motion_ddot": 0,
        "tle_line1": "1 60133U 24119A   25342.90861519 -.00000246  00000+0  00000+0 0  9996",
        "tle_line2": "2 60133   0.0087 198.1567 0001349 105.4692  26.2013  1.00271448  5052"
      },
      "geometry": {
        "type": "Point",
        "coordinates": [
          118.51576559953874,
          -0.007074681000788287
        ]
      }
    },
    {
      "type": "Feature",
      "properties": {
        "norad_id": 65815,
        "name": "FENGYUN 3H",
        "group": "weather",
        "lat": -47.33601401692438,
        "lon": 93.46892061347558,
        "alt_km": 832.8083815329655,
        "timestamp": "2025-12-09T07:41:32.845533+00:00",
        "meta_object_name": "FENGYUN 3H",
        "meta_object_id": "2025-219A",
        "meta_epoch": "2025-12-08T22:09:57.709440",
        "meta_mean_motion": 14.1990289,
        "meta_eccentricity": 6.061e-05,
        "meta_inclination": 98.658,
        "meta_ra_of_asc_node": 282.597,
        "meta_arg_of_pericenter": 83.8766,
        "meta_mean_anomaly": 276.248,
        "meta_ephemeris_type": 0,
        "meta_classification_type": "U",
        "meta_norad_cat_id": 65815,
        "meta_element_set_no": 999,
        "meta_rev_at_epoch": 1038,
        "meta_bstar": 9.9814009e-05,
        "meta_mean_motion_dot": 1.69e-06,
        "meta_mean_motion_ddot": 0,
        "tle_line1": "1 65815U 25219A   25342.92358460  .00000169  00000+0  99814-4 0  9997",
        "tle_line2": "2 65815  98.6580 282.5970 0000606  83.8766 276.2480 14.19902890 10380"
      },
      "geometry": {
        "type": "Point",
        "coordinates": [
          93.46892061347558,
          -47.33601401692438
        ]
      }
    }
  ]
}